ONEWEB-0444             
1 51638U 22012S   23282.13858765 -.00000109  00000+0 -34774-3 0  9999
2 51638  87.8889 231.2920 0002192  76.5915 283.5457 13.10380649 82019
ONEWEB-0445             
1 51639U 22012T   23281.93066369  .00000706  00000+0  19867-2 0  9994
2 51639  87.8887 231.3193 0001622  85.8552 274.2761 13.10374869 81985
ONEWEB-0446             
1 51640U 22012U   23282.13696631 -.00000220  00000+0 -66510-3 0  9991
2 51640  87.8887 231.2839 0001768  75.0996 285.0327 13.10379261 82011
ONEWEB-0448             
1 51641U 22012V   23281.91278070  .00000034  00000+0  61198-4 0  9999
2 51641  87.8885 231.3300 0002207  77.8183 282.3191 13.10378700 81948
ONEWEB-0449             
1 51642U 22012W   23282.14673694  .00000321  00000+0  88282-3 0  9998
2 51642  87.8888 231.2870 0001991  84.3859 275.7496 13.10377568 81995
ONEWEB-0451             
1 51643U 22012X   23281.82235982  .00000103  00000+0  23149-3 0  9996
2 51643  87.9192 201.0989 0002157  79.0003 281.1371 13.17651308 84291
ONEWEB-0452             
1 51644U 22012Y   23281.82025150  .00000095  00000+0  21058-3 0  9998
2 51644  87.9255 201.1063 0002103  87.1845 272.9527 13.17649360 84309
ONEWEB-0455             
1 51645U 22012Z   23281.82692035  .00000668  00000+0  29052-3 0  9999
2 51645  87.5415 188.8192 0019329  84.4764 275.8631 14.22601840 86427
